OBJECT B                
1 51825U 22019B   25071.88973930  .00036266  00000+0  10522-2 0  9991
2 51825  97.3943 147.8943 0010728  14.1296 346.0246 15.35374733168264
